SAUDISAT 1C             
1 27607U 02058C   22338.42213462  .00000787  00000+0  12732-3 0  9998
2 27607  64.5530 141.6598 0081000 262.1840  97.0061 14.76445718 73463
SAUDISAT 2              
1 28371U 04025F   22338.33031871  .00000427  00000+0  11055-3 0  9993
2 28371  98.4017 295.6173 0024779 304.4392  55.4476 14.54663605977980
SAUDISAT 3              
1 31118U 07012B   22338.41354208  .00000237  00000+0  48124-4 0  9993
2 31118  97.9906 281.5183 0015573  19.7807 340.4000 14.69427448838062
PISAT                   
1 41784U 16059B   22338.32380939  .00000528  00000+0  10858-3 0  9999
2 41784  97.8957  14.8979 0031424 354.8405   5.2470 14.64126924330544
FLYING LAPTOP           
1 42831U 17042G   22338.34697565  .00001655  00000+0  16737-3 0  9998
2 42831  97.4022 182.7831 0014408 153.2005 206.9914 14.92167273293420
SALSAT                  
1 46495U 20068K   22338.58184255  .00002572  00000+0  18320-3 0  9992
2 46495  97.7485 280.1653 0017878  63.1948 297.1104 15.05398251119775
